     2.11           N: GPS NAV DATA                         RINEX VERSION / TYPE
RTKCONV 2.4.2                           20230813 104108 UTC PGM / RUN BY / DATE 
log: C:\Users\oo\Desktop\divers\verniquet\Réseau\guilands_  COMMENT             
format: u-blox                                              COMMENT             
                                                            END OF HEADER       
 9 23  8  9 16  0  0.0 -.909576192498E-04  .966338120634E-11  .000000000000E+00
     .620000000000E+02 -.116250000000E+02  .477484174847E-08 -.732467999604E-01
    -.601634383202E-06  .258481246419E-02  .766105949879E-05  .515356254768E+04
     .316800000000E+06 -.242143869400E-07  .307008984801E+01  .204890966415E-07
     .956903150834E+00  .230156250000E+03  .193562889935E+01 -.810890919719E-08
     .112861844006E-09  .100000000000E+01  .227400000000E+04  .000000000000E+00
     .240000000000E+01  .000000000000E+00  .931322574615E-09  .620000000000E+02
     .313056000000E+06  .400000000000E+01
 6 23  8  9 16  0  0.0  .568491406739E-03 -.488853402203E-11  .000000000000E+00
     .750000000000E+02 -.517812500000E+02  .405695470273E-08 -.256183323754E+01
    -.255554914474E-05  .269796373323E-02  .524707138538E-05  .515371737862E+04
     .316800000000E+06 -.633299350739E-07  .100825607096E+01  .447034835815E-07
     .989317639679E+00  .293062500000E+03 -.777051446260E+00 -.783639784600E-08
     .364300888880E-10  .100000000000E+01  .227400000000E+04  .000000000000E+00
     .240000000000E+01  .000000000000E+00  .372529029846E-08  .750000000000E+02
     .312546000000E+06  .400000000000E+01
 4 23  8  9 16  0  0.0  .120563432574E-03  .113686837722E-10  .000000000000E+00
     .144000000000E+03 -.148437500000E+02  .456876173584E-08 -.984383214072E+00
    -.845640897751E-06  .247504981235E-02  .775419175625E-05  .515363335609E+04
     .316800000000E+06  .558793544769E-08  .312734194433E+01 -.242143869400E-07
     .963555773726E+00  .233218750000E+03 -.301561379381E+01 -.794640242813E-08
     .946467995620E-10  .100000000000E+01  .227400000000E+04  .000000000000E+00
     .240000000000E+01  .000000000000E+00 -.465661287308E-08  .912000000000E+03
     .312546000000E+06  .400000000000E+01
11 23  8  9 16  0  0.0 -.313248019665E-03 -.171667124960E-10  .000000000000E+00
     .250000000000E+02 -.602812500000E+02  .456911889357E-08 -.116665468170E+01
    -.305473804474E-05  .102281710133E-02  .493414700031E-05  .515357872009E+04
     .316800000000E+06 -.186264514923E-07  .104789799101E+01  .689178705215E-07
     .965575136103E+00  .285968750000E+03 -.282695079174E+01 -.819212694926E-08
     .357157734196E-10  .100000000000E+01  .227400000000E+04  .000000000000E+00
     .240000000000E+01  .000000000000E+00 -.884756445885E-08  .281000000000E+03
     .313056000000E+06  .400000000000E+01
 7 23  8  9 16  0  0.0  .100635457784E-03 -.109139364213E-10  .000000000000E+00
     .410000000000E+02  .468750000000E+00  .464662212189E-08  .283871946737E+01
    -.134110450745E-06  .175276243826E-01  .790879130363E-05  .515372923470E+04
     .316800000000E+06  .316649675369E-07 -.214147894181E+01 -.189989805222E-06
     .950196281478E+00  .217031250000E+03 -.217771193943E+01 -.773960810003E-08
    -.285726187357E-09  .100000000000E+01  .227400000000E+04  .000000000000E+00
     .240000000000E+01  .000000000000E+00 -.111758708954E-07  .410000000000E+02
     .312546000000E+06  .400000000000E+01
20 23  8  9 16  0  0.0  .418135896325E-03 -.204636307899E-11  .000000000000E+00
     .680000000000E+02 -.696250000000E+02  .481377194149E-08 -.190741684750E+01
    -.348128378391E-05  .404472416267E-02  .827945768833E-05  .515360079956E+04
     .316800000000E+06  .707805156708E-07  .187556019126E+01 -.800937414169E-07
     .949436201909E+00  .211031250000E+03 -.287331729855E+01 -.816462580372E-08
     .190365072327E-09  .100000000000E+01  .227400000000E+04  .000000000000E+00
     .240000000000E+01  .000000000000E+00 -.838190317154E-08  .680000000000E+02
     .312546000000E+06  .400000000000E+01
 3 23  8  9 16  0  0.0 -.195039436221E-03  .178488335223E-10  .000000000000E+00
     .600000000000E+01 -.619375000000E+02  .400552398901E-08  .232038886800E+01
    -.338628888130E-05  .510406668764E-02  .802055001259E-05  .515362627602E+04
     .316800000000E+06 -.223517417908E-07  .204688384854E+01 -.109896063805E-06
     .979969800887E+00  .233437500000E+03  .108588590223E+01 -.766317634491E-08
     .120719314158E-09  .100000000000E+01  .227400000000E+04  .000000000000E+00
     .240000000000E+01  .000000000000E+00  .186264514923E-08  .600000000000E+01
     .313056000000E+06  .400000000000E+01
19 23  8  9 15 59 44.0  .355373602360E-03  .511590769747E-11  .000000000000E+00
     .210000000000E+02  .425625000000E+02  .430125059292E-08  .150341364858E+01
     .216625630856E-05  .948329153471E-02  .363402068615E-05  .515363973999E+04
     .316784000000E+06  .212341547012E-06  .573284226103E-01  .651925802231E-07
     .972588147400E+00  .315375000000E+03  .238139014687E+01 -.800283335013E-08
     .632169189527E-10  .100000000000E+01  .227400000000E+04  .000000000000E+00
     .240000000000E+01  .000000000000E+00 -.153668224812E-07  .210000000000E+02
     .312546000000E+06  .400000000000E+01
16 23  8  9 16  0  0.0 -.470413826406E-03  .488853402203E-11  .000000000000E+00
     .240000000000E+02  .709687500000E+02  .420481800469E-08  .364884532483E+00
     .386126339436E-05  .133102420950E-01  .855512917042E-05  .515364357567E+04
     .316800000000E+06 -.124797224998E-06 -.100799605629E+01  .271946191788E-06
     .964194896302E+00  .217437500000E+03  .791827169020E+00 -.802426281418E-08
    -.126076680171E-09  .100000000000E+01  .227400000000E+04  .000000000000E+00
     .240000000000E+01  .000000000000E+00 -.102445483208E-07  .240000000000E+02
     .313056000000E+06  .400000000000E+01
30 23  8  9 16  0  0.0 -.497803092003E-03  .295585778076E-11  .000000000000E+00
     .380000000000E+02  .268750000000E+01  .508271171534E-08  .275783724738E+01
    -.279396772385E-07  .659565965179E-02  .778958201408E-05  .515378033447E+04
     .316800000000E+06 -.502914190292E-07 -.213649735172E+01 -.428408384323E-07
     .935322442265E+00  .214625000000E+03 -.254590289645E+01 -.813283876538E-08
    -.306798493674E-09  .100000000000E+01  .227400000000E+04  .000000000000E+00
     .240000000000E+01  .000000000000E+00  .372529029846E-08  .380000000000E+02
     .312546000000E+06  .400000000000E+01
26 23  8  9 16  0  0.0  .233579427004E-03 -.147792889038E-11  .000000000000E+00
     .490000000000E+02  .647500000000E+02  .485413076546E-08  .124706425627E+01
     .346638262272E-05  .803229806479E-02  .919029116631E-05  .515373863792E+04
     .316800000000E+06 -.128522515297E-06 -.116644914171E+01  .558793544769E-07
     .932990277281E+00  .186937500000E+03  .464615312316E+00 -.822712840721E-08
    -.280011663610E-09  .100000000000E+01  .227400000000E+04  .000000000000E+00
     .240000000000E+01  .000000000000E+00  .698491930962E-08  .490000000000E+02
     .313086000000E+06  .400000000000E+01
 5 23  8  9 16  0  0.0 -.138154719025E-03 -.147792889038E-11  .000000000000E+00
     .800000000000E+01 -.605625000000E+02  .443697053192E-08 -.221673040475E+00
    -.303983688354E-05  .608704984188E-02  .859424471855E-05  .515371349907E+04
     .316800000000E+06 -.670552253723E-07  .199933323975E+01  .167638063431E-07
     .966967908723E+00  .215156250000E+03  .120196558157E+01 -.805354974839E-08
     .155720772109E-09  .100000000000E+01  .227400000000E+04  .000000000000E+00
     .240000000000E+01  .000000000000E+00 -.111758708954E-07  .800000000000E+01
     .314616000000E+06  .400000000000E+01
13 23  8  9 15 59 44.0  .557989347726E-03  .477484718431E-11  .000000000000E+00
     .000000000000E+00 -.166250000000E+02  .452840291187E-08 -.960744380185E+00
    -.955536961555E-06  .731210922822E-02  .723078846931E-05  .515366340065E+04
     .316784000000E+06  .782310962677E-07 -.305172393118E+01  .184401869774E-06
     .970461147899E+00  .244531250000E+03  .921109226137E+00 -.794604527039E-08
    -.532165023952E-10  .100000000000E+01  .227400000000E+04  .000000000000E+00
     .240000000000E+01  .000000000000E+00 -.111758708954E-07  .000000000000E+00
     .316446000000E+06  .400000000000E+01
 7 23  8  9 18  0  0.0  .100557226688E-03 -.109139364213E-10  .000000000000E+00
     .420000000000E+02 -.253125000000E+01  .473376860903E-08 -.239433521344E+01
    -.176951289177E-06  .175284279976E-01  .770576298237E-05  .515372767067E+04
     .324000000000E+06  .150874257088E-06 -.214153536071E+01 -.124797224998E-06
     .950194420646E+00  .222875000000E+03 -.217769374658E+01 -.778282418587E-08
    -.191436545529E-09  .100000000000E+01  .227400000000E+04  .000000000000E+00
     .240000000000E+01  .000000000000E+00 -.111758708954E-07  .420000000000E+02
     .316806000000E+06  .400000000000E+01
 9 23  8  9 18  0  0.0 -.908877700567E-04  .966338120634E-11  .000000000000E+00
     .690000000000E+02 -.166250000000E+02  .476734143605E-08  .976935563962E+00
    -.108219683170E-05  .258550175931E-02  .772066414356E-05  .515356387711E+04
     .324000000000E+06 -.745058059692E-07  .307003134299E+01 -.726431608200E-07
     .956904397240E+00  .228343750000E+03  .193569682118E+01 -.803497754621E-08
     .163935399996E-09  .100000000000E+01  .227400000000E+04  .000000000000E+00
     .240000000000E+01  .000000000000E+00  .931322574615E-09  .690000000000E+02
     .316806000000E+06  .400000000000E+01
